[
    {
        "name": "Lending Company 1",
        "url": "http://www.google.com",
        "zipcode": "83862"
    },
    {
        "name": "Lending Company 2",
        "url": "http://www.google.com",
        "zipcode": "15434"
    },
    {
        "name": "Lending Company 3",
        "url": "http://www.google.com",
        "zipcode": "64137"
    },
    {
        "name": "Lending Company 4",
        "url": "http://www.google.com",
        "zipcode": "30106"
    },
    {
        "name": "Lending Company 5",
        "url": "http://www.google.com",
        "zipcode": "12807"
    },
    {
        "name": "Lending Company 6",
        "url": "http://www.google.com",
        "zipcode": "02873"
    },
    {
        "name": "Lending Company 7",
        "url": "http://www.google.com",
        "zipcode": "98132"
    },
    {
        "name": "Lending Company 8",
        "url": "http://www.google.com",
        "zipcode": "09347"
    },
    {
        "name": "Lending Company 9",
        "url": "http://www.google.com",
        "zipcode": "39769"
    },
    {
        "name": "Lending Company 10",
        "url": "http://www.google.com",
        "zipcode": "87901"
    },
    {
        "name": "Lending Company 11",
        "url": "http://www.google.com",
        "zipcode": "32909"
    },
    {
        "name": "Lending Company 12",
        "url": "http://www.google.com",
        "zipcode": "51579"
    },
    {
        "name": "Lending Company 13",
        "url": "http://www.google.com",
        "zipcode": "16920"
    },
    {
        "name": "Lending Company 14",
        "url": "http://www.google.com",
        "zipcode": "46545"
    },
    {
        "name": "Lending Company 15",
        "url": "http://www.google.com",
        "zipcode": "58494"
    },
    {
        "name": "Lending Company 16",
        "url": "http://www.google.com",
        "zipcode": "33679"
    },
    {
        "name": "Lending Company 17",
        "url": "http://www.google.com",
        "zipcode": "16635"
    },
    {
        "name": "Lending Company 18",
        "url": "http://www.google.com",
        "zipcode": "63125"
    },
    {
        "name": "Lending Company 19",
        "url": "http://www.google.com",
        "zipcode": "40146"
    },
    {
        "name": "Lending Company 20",
        "url": "http://www.google.com",
        "zipcode": "29945"
    },
    {
        "name": "Lending Company 21",
        "url": "http://www.google.com",
        "zipcode": "61235"
    },
    {
        "name": "Lending Company 22",
        "url": "http://www.google.com",
        "zipcode": "27910"
    },
    {
        "name": "Lending Company 23",
        "url": "http://www.google.com",
        "zipcode": "76018"
    },
    {
        "name": "Lending Company 24",
        "url": "http://www.google.com",
        "zipcode": "92635"
    },
    {
        "name": "Lending Company 25",
        "url": "http://www.google.com",
        "zipcode": "48099"
    },
    {
        "name": "Lending Company 26",
        "url": "http://www.google.com",
        "zipcode": "43908"
    },
    {
        "name": "Lending Company 27",
        "url": "http://www.google.com",
        "zipcode": "31598"
    },
    {
        "name": "Lending Company 28",
        "url": "http://www.google.com",
        "zipcode": "96024"
    },
    {
        "name": "Lending Company 29",
        "url": "http://www.google.com",
        "zipcode": "81303"
    },
    {
        "name": "Lending Company 30",
        "url": "http://www.google.com",
        "zipcode": "45150"
    },
    {
        "name": "Lending Company 31",
        "url": "http://www.google.com",
        "zipcode": "04537"
    },
    {
        "name": "Lending Company 32",
        "url": "http://www.google.com",
        "zipcode": "15866"
    },
    {
        "name": "Lending Company 33",
        "url": "http://www.google.com",
        "zipcode": "46731"
    },
    {
        "name": "Lending Company 34",
        "url": "http://www.google.com",
        "zipcode": "32193"
    },
    {
        "name": "Lending Company 35",
        "url": "http://www.google.com",
        "zipcode": "52347"
    },
    {
        "name": "Lending Company 36",
        "url": "http://www.google.com",
        "zipcode": "09383"
    },
    {
        "name": "Lending Company 37",
        "url": "http://www.google.com",
        "zipcode": "78675"
    },
    {
        "name": "Lending Company 38",
        "url": "http://www.google.com",
        "zipcode": "95543"
    },
    {
        "name": "Lending Company 39",
        "url": "http://www.google.com",
        "zipcode": "34293"
    },
    {
        "name": "Lending Company 40",
        "url": "http://www.google.com",
        "zipcode": "83120"
    },
    {
        "name": "Lending Company 41",
        "url": "http://www.google.com",
        "zipcode": "37026"
    },
    {
        "name": "Lending Company 42",
        "url": "http://www.google.com",
        "zipcode": "54114"
    },
    {
        "name": "Lending Company 43",
        "url": "http://www.google.com",
        "zipcode": "04254"
    },
    {
        "name": "Lending Company 44",
        "url": "http://www.google.com",
        "zipcode": "58622"
    },
    {
        "name": "Lending Company 45",
        "url": "http://www.google.com",
        "zipcode": "42102"
    },
    {
        "name": "Lending Company 46",
        "url": "http://www.google.com",
        "zipcode": "60922"
    },
    {
        "name": "Lending Company 47",
        "url": "http://www.google.com",
        "zipcode": "45656"
    },
    {
        "name": "Lending Company 48",
        "url": "http://www.google.com",
        "zipcode": "80281"
    },
    {
        "name": "Lending Company 49",
        "url": "http://www.google.com",
        "zipcode": "33026"
    },
    {
        "name": "Lending Company 50",
        "url": "http://www.google.com",
        "zipcode": "34636"
    },
    {
        "name": "Lending Company 51",
        "url": "http://www.google.com",
        "zipcode": "24323"
    },
    {
        "name": "Lending Company 52",
        "url": "http://www.google.com",
        "zipcode": "61839"
    },
    {
        "name": "Lending Company 53",
        "url": "http://www.google.com",
        "zipcode": "15962"
    },
    {
        "name": "Lending Company 54",
        "url": "http://www.google.com",
        "zipcode": "55002"
    },
    {
        "name": "Lending Company 55",
        "url": "http://www.google.com",
        "zipcode": "59447"
    },
    {
        "name": "Lending Company 56",
        "url": "http://www.google.com",
        "zipcode": "58755"
    },
    {
        "name": "Lending Company 57",
        "url": "http://www.google.com",
        "zipcode": "15240"
    },
    {
        "name": "Lending Company 58",
        "url": "http://www.google.com",
        "zipcode": "50038"
    },
    {
        "name": "Lending Company 59",
        "url": "http://www.google.com",
        "zipcode": "51248"
    },
    {
        "name": "Lending Company 60",
        "url": "http://www.google.com",
        "zipcode": "58208"
    },
    {
        "name": "Lending Company 61",
        "url": "http://www.google.com",
        "zipcode": "61930"
    },
    {
        "name": "Lending Company 62",
        "url": "http://www.google.com",
        "zipcode": "77552"
    },
    {
        "name": "Lending Company 63",
        "url": "http://www.google.com",
        "zipcode": "24846"
    },
    {
        "name": "Lending Company 64",
        "url": "http://www.google.com",
        "zipcode": "44830"
    },
    {
        "name": "Lending Company 65",
        "url": "http://www.google.com",
        "zipcode": "32351"
    },
    {
        "name": "Lending Company 66",
        "url": "http://www.google.com",
        "zipcode": "71033"
    },
    {
        "name": "Lending Company 67",
        "url": "http://www.google.com",
        "zipcode": "87567"
    },
    {
        "name": "Lending Company 68",
        "url": "http://www.google.com",
        "zipcode": "75791"
    },
    {
        "name": "Lending Company 69",
        "url": "http://www.google.com",
        "zipcode": "11954"
    },
    {
        "name": "Lending Company 70",
        "url": "http://www.google.com",
        "zipcode": "76677"
    },
    {
        "name": "Lending Company 71",
        "url": "http://www.google.com",
        "zipcode": "46310"
    },
    {
        "name": "Lending Company 72",
        "url": "http://www.google.com",
        "zipcode": "68322"
    },
    {
        "name": "Lending Company 73",
        "url": "http://www.google.com",
        "zipcode": "36689"
    },
    {
        "name": "Lending Company 74",
        "url": "http://www.google.com",
        "zipcode": "26346"
    },
    {
        "name": "Lending Company 75",
        "url": "http://www.google.com",
        "zipcode": "13842"
    },
    {
        "name": "Lending Company 76",
        "url": "http://www.google.com",
        "zipcode": "36753"
    },
    {
        "name": "Lending Company 77",
        "url": "http://www.google.com",
        "zipcode": "97827"
    },
    {
        "name": "Lending Company 78",
        "url": "http://www.google.com",
        "zipcode": "49969"
    },
    {
        "name": "Lending Company 79",
        "url": "http://www.google.com",
        "zipcode": "20752"
    },
    {
        "name": "Lending Company 80",
        "url": "http://www.google.com",
        "zipcode": "55164"
    },
    {
        "name": "Lending Company 81",
        "url": "http://www.google.com",
        "zipcode": "74050"
    },
    {
        "name": "Lending Company 82",
        "url": "http://www.google.com",
        "zipcode": "97466"
    },
    {
        "name": "Lending Company 83",
        "url": "http://www.google.com",
        "zipcode": "37810"
    },
    {
        "name": "Lending Company 84",
        "url": "http://www.google.com",
        "zipcode": "45205"
    },
    {
        "name": "Lending Company 85",
        "url": "http://www.google.com",
        "zipcode": "12737"
    },
    {
        "name": "Lending Company 86",
        "url": "http://www.google.com",
        "zipcode": "11783"
    },
    {
        "name": "Lending Company 87",
        "url": "http://www.google.com",
        "zipcode": "94524"
    },
    {
        "name": "Lending Company 88",
        "url": "http://www.google.com",
        "zipcode": "96089"
    },
    {
        "name": "Lending Company 89",
        "url": "http://www.google.com",
        "zipcode": "49689"
    },
    {
        "name": "Lending Company 90",
        "url": "http://www.google.com",
        "zipcode": "12059"
    },
    {
        "name": "Lending Company 91",
        "url": "http://www.google.com",
        "zipcode": "13856"
    },
    {
        "name": "Lending Company 92",
        "url": "http://www.google.com",
        "zipcode": "60303"
    },
    {
        "name": "Lending Company 93",
        "url": "http://www.google.com",
        "zipcode": "75779"
    },
    {
        "name": "Lending Company 94",
        "url": "http://www.google.com",
        "zipcode": "25159"
    },
    {
        "name": "Lending Company 95",
        "url": "http://www.google.com",
        "zipcode": "19941"
    },
    {
        "name": "Lending Company 96",
        "url": "http://www.google.com",
        "zipcode": "99638"
    },
    {
        "name": "Lending Company 97",
        "url": "http://www.google.com",
        "zipcode": "82243"
    },
    {
        "name": "Lending Company 98",
        "url": "http://www.google.com",
        "zipcode": "31010"
    },
    {
        "name": "Lending Company 99",
        "url": "http://www.google.com",
        "zipcode": "13402"
    },
    {
        "name": "Lending Company 100",
        "url": "http://www.google.com",
        "zipcode": "57720"
    }
]